[
    {
        "Altitude(m)": 624792.7909868762,
        "Argument of Periapsis(deg)": 0.0,
        "Eccentricity": 0.0,
        "Inclination(deg)": 60.0,
        "Latitude(deg)": -59.14714491510408,
        "Longitude(deg)": -25.973453435113754,
        "Mean Anomaly(deg)": -98.18179999999998,
        "RAAN(deg)": 180.0,
        "Satellite Name": "Test1 808",
        "Satellite Number": 808,
        "Semi-Major Axis(m)": 6980739.136638005,
        "Time(s)": 0
    },
    {
        "Altitude(m)": 624842.1824077268,
        "Argument of Periapsis(deg)": 0.00010418945913296404,
        "Eccentricity": 0.0,
        "Inclination(deg)": 60.0,
        "Latitude(deg)": -59.289226793389254,
        "Longitude(deg)": -24.843946685830662,
        "Mean Anomaly(deg)": -97.56169385453813,
        "RAAN(deg)": 179.99957995086024,
        "Satellite Name": "Test1 808",
        "Satellite Number": 808,
        "Semi-Major Axis(m)": 6980739.136638005,
        "Time(s)": 10
    }
]